INTELSAT 902 (IS-902)   
1 26900U 01039A   26151.09941293 -.00000274  00000+0  00000+0 0  9994
2 26900   6.0754  71.9888 0004166 353.0729 169.2262  1.00271114 90529
INTELSAT 904 (IS-904)   
1 27380U 02007A   26151.16739410 -.00000217  00000+0  00000+0 0  9994
2 27380   6.8788  69.3875 0007422 355.6294 212.4378  1.00272042 51591
DIRECTV 5 (TEMPO 1)     
1 27426U 02023A   26151.40815786 -.00000047  00000+0  00000+0 0  9992
2 27426   4.8361  75.5175 0003580 357.3674 212.8627  1.00271719 87951
INTELSAT 905 (IS-905)   
1 27438U 02027A   26151.49141964  .00000102  00000+0  00000+0 0  9999
2 27438   6.7128  70.0002 0004319   7.9014 210.7925  1.00273044 51190
GALAXY 3C (G-3C)        
1 27445U 02030A   26151.41119122 -.00000142  00000+0  00000+0 0  9999
2 27445   3.6881  78.1995 0002009  25.7002 198.1863  1.00271947 46328
INTELSAT 906 (IS-906)   
1 27513U 02041A   26150.98080383  .00000022  00000+0  00000+0 0  9990
2 27513   5.7603  73.1307 0004607 352.6222 239.9721  1.00272690 86858
GALAXY 13 (HORIZONS-1)  
1 27954U 03044A   26151.47794686  .00000145  00000+0  00000+0 0  9992
2 27954   1.3769  84.0610 0002066 335.6254 211.3528  1.00269698 46403
INTELSAT 10-02          
1 28358U 04022A   26151.35843551  .00000001  00000+0  00000+0 0  9992
2 28358   0.0197  25.7457 0000309   2.7389 348.4096  1.00269854 80384
DIRECTV 8               
1 28659U 05019A   26151.50354734  .00000014  00000+0  00000+0 0  9994
2 28659   0.0320  73.2346 0003404   5.1660 232.8321  1.00272101 76908
GALAXY 28 (G-28)        
1 28702U 05022A   26151.42462462 -.00000189  00000+0  00000+0 0  9990
2 28702   3.2566  79.1384 0003316 352.9883 302.5652  1.00274754 51803
GALAXY 16 (G-16)        
1 29236U 06023A   26151.45805431 -.00000114  00000+0  00000+0 0  9993
2 29236   0.0033  92.0060 0003090 345.3730 237.4695  1.00270146 72808
DIRECTV 9S              
1 29494U 06043A   26151.48121133 -.00000102  00000+0  00000+0 0  9991
2 29494   2.3786  81.1007 0005205 359.8599 240.0682  1.00272249 51211
GALAXY 17 (G-17)        
1 31307U 07016B   26151.48433134 -.00000195  00000+0  00000+0 0  9997
2 31307   2.9311  80.1085 0004945   8.1175 250.1258  1.00271824 69630
INTELSAT 11 (IS-11)     
1 32253U 07044B   26151.46943433 -.00000025  00000+0  00000+0 0  9997
2 32253   3.5229  78.8696 0001327  69.0517 109.2735  0.99052111 68282
HORIZONS-2              
1 32388U 07063B   26151.48667137 -.00000242  00000+0  00000+0 0  9994
2 32388   2.5600  80.8300 0004165 351.0021 278.5772  1.00270972 67645
DIRECTV 11              
1 32729U 08013A   26151.35947470 -.00000113  00000+0  00000+0 0  9993
2 32729   0.0172 143.2263 0000304 255.1063 240.7549  1.00270935 45428
GALAXY 18 (G-18)        
1 32951U 08024A   26151.47687799  .00000038  00000+0  00000+0 0  9995
2 32951   0.0510  98.6026 0003274 336.2730 222.7787  1.00271331 45685
INTELSAT 25 (IS-25)     
1 33153U 08034A   26151.46882765 -.00000044  00000+0  00000+0 0  9998
2 33153   2.6662  80.5104 0002083  24.5356 149.0985  0.99035262 65525
GALAXY 19 (G-19)        
1 33376U 08045A   26151.48207801 -.00000127  00000+0  00000+0 0  9993
2 33376   0.0458 104.1003 0003361 338.3659 243.0774  1.00272302 64734
FM-5                    
1 35493U 09034A   26151.48415801 -.00000187  00000+0  00000+0 0  9991
2 35493   0.0135 305.1420 0000400   1.0954  30.8860  1.00271728 46477
INTELSAT 14 (IS-14)     
1 36097U 09064A   26151.42107125 -.00000261  00000+0  00000+0 0  9999
2 36097   0.0150  27.5483 0002798  54.0849 273.8828  1.00271125 60438
INTELSAT 15 (IS-15)     
1 36106U 09067A   26151.51813152 -.00000173  00000+0  00000+0 0  9999
2 36106   0.0141 342.1671 0002507  90.4078  88.1226  1.00271937 41068
DIRECTV 12              
1 36131U 09075A   26151.47211102 -.00000091  00000+0  00000+0 0  9997
2 36131   0.0110  84.4494 0000318 319.6880 272.0707  1.00272264 46388
INTELSAT 16 (IS-16)     
1 36397U 10006A   26151.48615137 -.00000232  00000+0  00000+0 0  9991
2 36397   0.0124 326.4713 0003084 135.9761 245.3577  1.00271505 59480
XM-5                    
1 37185U 10053A   26151.43717904 -.00000011  00000+0  00000+0 0  9994
2 37185   0.0623 274.9622 0003244 274.7821 101.3880  1.00272302 57317
INTELSAT 17 (IS-17)     
1 37238U 10065B   26151.44299802  .00000011  00000+0  00000+0 0  9998
2 37238   0.0209 131.8573 0002378 297.3882  45.1756  1.00271004 53082
INTELSAT 28 (IS-28)     
1 37392U 11016A   26151.42367127 -.00000212  00000+0  00000+0 0  9994
2 37392   1.7637  82.8260 0003891 345.7173 301.2289  1.00275212 53112
INTELSAT 18 (IS-18)     
1 37834U 11056A   26151.51850362  .00000000  00000+0  00000+0 0  9991
2 37834   0.0238 332.9882 0002211 107.3153 175.3775  1.00270665 53641
INTELSAT 22 (IS-22)     
1 38098U 12011A   26151.51553149 -.00000046  00000+0  00000+0 0  9990
2 38098   0.0132  90.1192 0002119 351.2994  65.2867  1.00271591  7023
INTELSAT 19 (IS-19)     
1 38356U 12030A   26151.46635633 -.00000044  00000+0  00000+0 0  9999
2 38356   0.0164   6.4646 0003298  68.0606 148.3332  1.00271324 50281
INTELSAT 20 (IS-20)     
1 38740U 12043A   26151.51483816 -.00000011  00000+0  00000+0 0  9994
2 38740   0.0046 122.4123 0001657  58.1252 322.3212  1.00270465 50589
INTELSAT 21 (IS-21)     
1 38749U 12045A   26151.48979139 -.00000272  00000+0  00000+0 0  9998
2 38749   0.0252  57.3063 0002144  20.2085 289.8072  1.00271824 50358
INTELSAT 23 (IS-23)     
1 38867U 12057A   26151.49074471 -.00000272  00000+0  00000+0 0  9998
2 38867   0.0120 329.1183 0000505 129.5187 274.0243  1.00275097 49788
FM-6                    
1 39360U 13058A   26151.56257397 -.00000002  00000+0  00000+0 0  9998
2 39360   0.0027 354.1520 0002250 149.7341 191.3819  1.00265243 45903
INTELSAT 30 (IS-30)     
1 40271U 14062A   26151.33025015 -.00000138  00000+0  00000+0 0  9992
2 40271   0.0291  46.4595 0001051   2.6140 223.6011  1.00271509  6625
DIRECTV 14              
1 40333U 14078B   26151.45805411 -.00000113  00000+0  00000+0 0  9990
2 40333   0.0119 339.6505 0000389 176.1198 158.8526  1.00271027 41875
DIRECTV 15              
1 40663U 15026A   26151.47211095  .00000000  00000+0  00000+0 0  9995
2 40663   0.0219 349.2324 0000377 157.7133 169.1048  1.00268790 40291
SKY MEXICO-1            
1 40664U 15026B   26151.48563137 -.00000222  00000+0  00000+0 0  9991
2 40664   0.0188 331.1196 0002333 113.5762 260.3176  1.00272234 40289
INTELSAT 34 (IS-34)     
1 40874U 15039A   26151.41899125 -.00000273  00000+0  00000+0 0  9996
2 40874   0.0099 307.6255 0000621  88.4200 308.2295  1.00275853 39464
INTELSAT 31 (IS-31)     
1 41581U 16035A   26151.35947470 -.00000138  00000+0  00000+0 0  9999
2 41581   0.0144 267.9013 0000771 340.7788  34.5522  1.00270806 36510
INTELSAT 36 (IS-36)     
1 41747U 16053A   26151.51483816 -.00000012  00000+0  00000+0 0  9991
2 41747   0.0105 350.0639 0001658 354.4785 158.3234  1.00271384 35799
INTELSAT 32E (IS-32E)   
1 41945U 17007B   26151.27880507 -.00000256  00000+0  00000+0 0  9992
2 41945   0.0182 339.2459 0000349  15.7546 310.9746  1.00271825 34053
INTELSAT 35E (IS-35E)   
1 42818U 17041A   26151.49438475 -.00000225  00000+0  00000+0 0  9993
2 42818   0.0171  41.7484 0002320  27.2169 323.5240  1.00271075 32643
INTELSAT 37E (IS-37E)   
1 42950U 17059A   26151.42635795 -.00000128  00000+0  00000+0 0  9998
2 42950   0.0159  12.5478 0002628  70.7162 301.1554  1.00271248 31890
AZERSPACE 2 (IS-38)     
1 43632U 18074A   26151.51015815  .00000149  00000+0  00000+0 0  9991
2 43632   0.0173 318.7887 0001607 107.5698  51.4211  1.00270543 28289
HORIZONS-3E             
1 43633U 18074B   26151.52961546 -.00000018  00000+0  00000+0 0  9990
2 43633   0.0191 138.7312 0000560 135.7669 334.1864  1.00271074 28174
AT&T T-16               
1 44333U 19034A   26151.48129801 -.00000103  00000+0  00000+0 0  9995
2 44333   0.0227  54.1862 0000344 211.4988  55.7161  1.00271847 25462
INTELSAT 39 (IS-39)     
1 44476U 19049B   26151.51353816  .00000046  00000+0  00000+0 0  9993
2 44476   0.0178 320.4620 0000549   8.2244 167.1591  1.00272056 24962
GALAXY 30 (G-30)        
1 46114U 20056C   26151.41086674  .00000049  00000+0  00000+0 0  9991
2 46114   0.0183 359.8885 0002522  68.4292 203.4940  1.00271277 21123
GALAXY 33 (G-33)        
1 54026U 22128A   26151.47827152  .00000092  00000+0  00000+0 0  9992
2 54026   0.0134 331.4772 0002072  99.0475 217.6405  1.00271952 13577
GALAXY 34 (G-34)        
1 54027U 22128B   26151.44791056  .00000071  00000+0  00000+0 0  9990
2 54027   0.0125 334.3213 0001898 105.0373 201.8380  1.00272676 13740
GALAXY 31 (G-31)        
1 54243U 22153A   26151.47928916  .00000000  00000+0  00000+0 0  9990
2 54243   0.0160 338.8893 0001577  91.0313 230.6010  1.00270202  6963
GALAXY 32 (G-32)        
1 54244U 22153B   26151.41989904 -.00000162  00000+0  00000+0 0  9999
2 54244   0.0105 315.4263 0002521  81.2055 272.4579  1.00271105 12974
GALAXY 35 (G-35)        
1 54741U 22170A   26151.47994524  .00000000  00000+0  00000+0 0  9990
2 54741   0.0191 328.1185 0002403 107.8328 252.7062  1.00270024 12722
GALAXY 36 (G-36)        
1 54742U 22170B   26151.48363801 -.00000173  00000+0  00000+0 0  9992
2 54742   0.0222 249.8314 0003249 187.7546 256.5152  1.00274642 12608
GALAXY 37 (G-37)        
1 57493U 23112A   26151.44806961  .00000061  00000+0  00000+0 0  9995
2 57493   0.0228  50.6189 0002264  19.6917 212.9440  1.00271674 10379
